[{"OBJECT_NAME":"DONGPO 10","OBJECT_ID":"2022-167H","EPOCH":"2026-03-09T22:44:56.137344","MEAN_MOTION":15.322785,"ECCENTRICITY":0.00061655,"INCLINATION":97.685,"RA_OF_ASC_NODE":235.0962,"ARG_OF_PERICENTER":106.9526,"MEAN_ANOMALY":253.2392,"EPHEMERIS_TYPE":0,"CLASSIFICATION_TYPE":"U","NORAD_CAT_ID":54689,"ELEMENT_SET_NO":999,"REV_AT_EPOCH":18015,"BSTAR":0.00049390523,"MEAN_MOTION_DOT":0.00015333,"MEAN_MOTION_DDOT":0},{"OBJECT_NAME":"STARLINK-35683","OBJECT_ID":"2025-257AB","EPOCH":"2026-03-09T16:26:51.457056","MEAN_MOTION":15.3017288,"ECCENTRICITY":0.00014136,"INCLINATION":53.159,"RA_OF_ASC_NODE":216.9781,"ARG_OF_PERICENTER":51.3731,"MEAN_ANOMALY":308.7396,"EPHEMERIS_TYPE":0,"CLASSIFICATION_TYPE":"U","NORAD_CAT_ID":66405,"ELEMENT_SET_NO":999,"REV_AT_EPOCH":1966,"BSTAR":0.00066600395,"MEAN_MOTION_DOT":0.00019401,"MEAN_MOTION_DDOT":0}]
